{"fetched_at":"2026-03-30T06:02:59Z","count":15439,"tles":[{"name":"STARLINK-32753","line1":"1 62481U 24254V   26087.89655985  .00028634  00000+0  10451-2 0  9991","line2":"2 62481  43.0015 267.6250 0001250 276.8164  83.2546 15.27609174 70597","category":"Starlink"}]}