{
  "norad_id": 62481,
  "name": "STARLINK-32753",
  "history": [
    {
      "epoch": "2026-03-28T21:31:02.771040Z",
      "apogee_km": 483.8193773211424,
      "perigee_km": 482.1041026361481,
      "latitude_deg": 4.2331149198619156e-05,
      "longitude_deg": 118.55307350411225,
      "height_km": 482.6366912647714,
      "semi_major_axis_km": 6861.098739978645,
      "eccentricity": 0.000125,
      "inclination_deg": 43.0015,
      "raan_deg": 267.625,
      "arg_perigee_deg": 276.8164,
      "mean_anomaly_deg": 83.2546,
      "mean_motion_rev_day": 15.27609174
    }
  ]
}